{
  "type": "FeatureCollection",
  "features": [
    {
      "type": "Feature",
      "properties": {
        "norad_id": 36744,
        "name": "COMS 1",
        "group": "weather",
        "lat": -4.187801127352863,
        "lon": -25.509191292757347,
        "alt_km": 35786.26196924505,
        "timestamp": "2025-12-02T08:59:32.362106+00:00",
        "meta_object_name": "COMS 1",
        "meta_object_id": "2010-032A",
        "meta_epoch": "2025-12-01T12:42:46.444608",
        "meta_mean_motion": 1.00270535,
        "meta_eccentricity": 0.00010192,
        "meta_inclination": 4.3122,
        "meta_ra_of_asc_node": 78.1218,
        "meta_arg_of_pericenter": 177.7332,
        "meta_mean_anomaly": 133.6625,
        "meta_ephemeris_type": 0,
        "meta_classification_type": "U",
        "meta_norad_cat_id": 36744,
        "meta_element_set_no": 999,
        "meta_rev_at_epoch": 4910,
        "meta_bstar": 0,
        "meta_mean_motion_dot": -3.23e-06,
        "meta_mean_motion_ddot": 0,
        "tle_line1": "1 36744U 10032A   25335.52970422 -.00000323  00000+0  00000+0 0  9996",
        "tle_line2": "2 36744   4.3122  78.1218 0001019 177.7332 133.6625  1.00270535 49109"
      },
      "geometry": {
        "type": "Point",
        "coordinates": [
          -25.509191292757347,
          -4.187801127352863
        ]
      }
    },
    {
      "type": "Feature",
      "properties": {
        "norad_id": 37214,
        "name": "FENGYUN 3B",
        "group": "weather",
        "lat": -12.468475073536128,
        "lon": -165.72757920774728,
        "alt_km": 863.1443800487332,
        "timestamp": "2025-12-02T08:59:32.362119+00:00",
        "meta_object_name": "FENGYUN 3B",
        "meta_object_id": "2010-059A",
        "meta_epoch": "2025-12-02T05:06:06.740064",
        "meta_mean_motion": 14.1478499,
        "meta_eccentricity": 0.0022492,
        "meta_inclination": 98.9923,
        "meta_ra_of_asc_node": 16.1157,
        "meta_arg_of_pericenter": 27.4147,
        "meta_mean_anomaly": 59.8668,
        "meta_ephemeris_type": 0,
        "meta_classification_type": "U",
        "meta_norad_cat_id": 37214,
        "meta_element_set_no": 999,
        "meta_rev_at_epoch": 77957,
        "meta_bstar": 8.4977e-05,
        "meta_mean_motion_dot": 1.19e-06,
        "meta_mean_motion_ddot": 0,
        "tle_line1": "1 37214U 10059A   25336.21257801  .00000119  00000+0  84977-4 0  9996",
        "tle_line2": "2 37214  98.9923  16.1157 0022492  27.4147  59.8668 14.14784990779578"
      },
      "geometry": {
        "type": "Point",
        "coordinates": [
          -165.72757920774728,
          -12.468475073536128
        ]
      }
    },
    {
      "type": "Feature",
      "properties": {
        "norad_id": 37849,
        "name": "SUOMI NPP",
        "group": "weather",
        "lat": -36.98076270477685,
        "lon": 87.13044213435943,
        "alt_km": 833.0667697459721,
        "timestamp": "2025-12-02T08:59:32.362130+00:00",
        "meta_object_name": "SUOMI NPP",
        "meta_object_id": "2011-061A",
        "meta_epoch": "2025-12-02T02:53:47.215104",
        "meta_mean_motion": 14.19509173,
        "meta_eccentricity": 0.000185,
        "meta_inclination": 98.7757,
        "meta_ra_of_asc_node": 273.5587,
        "meta_arg_of_pericenter": 139.1573,
        "meta_mean_anomaly": 220.9742,
        "meta_ephemeris_type": 0,
        "meta_classification_type": "U",
        "meta_norad_cat_id": 37849,
        "meta_element_set_no": 999,
        "meta_rev_at_epoch": 73048,
        "meta_bstar": 7.3827e-05,
        "meta_mean_motion_dot": 1.11e-06,
        "meta_mean_motion_ddot": 0,
        "tle_line1": "1 37849U 11061A   25336.12068536  .00000111  00000+0  73827-4 0  9993",
        "tle_line2": "2 37849  98.7757 273.5587 0001850 139.1573 220.9742 14.19509173730484"
      },
      "geometry": {
        "type": "Point",
        "coordinates": [
          87.13044213435943,
          -36.98076270477685
        ]
      }
    },
    {
      "type": "Feature",
      "properties": {
        "norad_id": 38552,
        "name": "METEOSAT-10 (MSG-3)",
        "group": "weather",
        "lat": 2.405584564639804,
        "lon": -153.49151059859855,
        "alt_km": 35784.843881265515,
        "timestamp": "2025-12-02T08:59:32.362143+00:00",
        "meta_object_name": "METEOSAT-10 (MSG-3)",
        "meta_object_id": "2012-035B",
        "meta_epoch": "2025-12-02T01:48:01.931040",
        "meta_mean_motion": 1.002722,
        "meta_eccentricity": 6.88e-05,
        "meta_inclination": 4.2018,
        "meta_ra_of_asc_node": 61.7375,
        "meta_arg_of_pericenter": 218.9493,
        "meta_mean_anomaly": 177.6056,
        "meta_ephemeris_type": 0,
        "meta_classification_type": "U",
        "meta_norad_cat_id": 38552,
        "meta_element_set_no": 999,
        "meta_rev_at_epoch": 4888,
        "meta_bstar": 0,
        "meta_mean_motion_dot": 1.3e-07,
        "meta_mean_motion_ddot": 0,
        "tle_line1": "1 38552U 12035B   25336.07502235  .00000013  00000+0  00000+0 0  9999",
        "tle_line2": "2 38552   4.2018  61.7375 0000688 218.9493 177.6056  1.00272200 48881"
      },
      "geometry": {
        "type": "Point",
        "coordinates": [
          -153.49151059859855,
          2.405584564639804
        ]
      }
    },
    {
      "type": "Feature",
      "properties": {
        "norad_id": 38771,
        "name": "METOP-B",
        "group": "weather",
        "lat": -0.9841284674395692,
        "lon": 26.658902876556176,
        "alt_km": 825.3725318858706,
        "timestamp": "2025-12-02T08:59:32.362155+00:00",
        "meta_object_name": "METOP-B",
        "meta_object_id": "2012-049A",
        "meta_epoch": "2025-12-02T03:55:43.360320",
        "meta_mean_motion": 14.21401861,
        "meta_eccentricity": 0.0002426,
        "meta_inclination": 98.6815,
        "meta_ra_of_asc_node": 26.3011,
        "meta_arg_of_pericenter": 168.3274,
        "meta_mean_anomaly": 191.796,
        "meta_ephemeris_type": 0,
        "meta_classification_type": "U",
        "meta_norad_cat_id": 38771,
        "meta_element_set_no": 999,
        "meta_rev_at_epoch": 68527,
        "meta_bstar": 0.00010156,
        "meta_mean_motion_dot": 1.78e-06,
        "meta_mean_motion_ddot": 0,
        "tle_line1": "1 38771U 12049A   25336.16369630  .00000178  00000+0  10156-3 0  9996",
        "tle_line2": "2 38771  98.6815  26.3011 0002426 168.3274 191.7960 14.21401861685272"
      },
      "geometry": {
        "type": "Point",
        "coordinates": [
          26.658902876556176,
          -0.9841284674395692
        ]
      }
    },
    {
      "type": "Feature",
      "properties": {
        "norad_id": 39216,
        "name": "INSAT-3D",
        "group": "weather",
        "lat": -1.3272326676951811,
        "lon": -24.140002199841422,
        "alt_km": 35786.65400433507,
        "timestamp": "2025-12-02T08:59:32.362167+00:00",
        "meta_object_name": "INSAT-3D",
        "meta_object_id": "2013-038B",
        "meta_epoch": "2025-12-01T21:16:46.376832",
        "meta_mean_motion": 1.00274665,
        "meta_eccentricity": 0.0001693,
        "meta_inclination": 1.4142,
        "meta_ra_of_asc_node": 85.1158,
        "meta_arg_of_pericenter": 151.5313,
        "meta_mean_anomaly": 283.0475,
        "meta_ephemeris_type": 0,
        "meta_classification_type": "U",
        "meta_norad_cat_id": 39216,
        "meta_element_set_no": 999,
        "meta_rev_at_epoch": 4510,
        "meta_bstar": 0,
        "meta_mean_motion_dot": -3.17e-06,
        "meta_mean_motion_ddot": 0,
        "tle_line1": "1 39216U 13038B   25335.88664788 -.00000317  00000+0  00000+0 0  9999",
        "tle_line2": "2 39216   1.4142  85.1158 0001693 151.5313 283.0475  1.00274665 45101"
      },
      "geometry": {
        "type": "Point",
        "coordinates": [
          -24.140002199841422,
          -1.3272326676951811
        ]
      }
    },
    {
      "type": "Feature",
      "properties": {
        "norad_id": 39260,
        "name": "FENGYUN 3C",
        "group": "weather",
        "lat": 77.62453369267578,
        "lon": 177.3689825688949,
        "alt_km": 838.815891956142,
        "timestamp": "2025-12-02T08:59:32.362178+00:00",
        "meta_object_name": "FENGYUN 3C",
        "meta_object_id": "2013-052A",
        "meta_epoch": "2025-12-02T05:07:57.533376",
        "meta_mean_motion": 14.15690888,
        "meta_eccentricity": 0.0013777,
        "meta_inclination": 98.4752,
        "meta_ra_of_asc_node": 314.4078,
        "meta_arg_of_pericenter": 227.755,
        "meta_mean_anomaly": 132.2457,
        "meta_ephemeris_type": 0,
        "meta_classification_type": "U",
        "meta_norad_cat_id": 39260,
        "meta_element_set_no": 999,
        "meta_rev_at_epoch": 63069,
        "meta_bstar": 9.3899e-05,
        "meta_mean_motion_dot": 1.43e-06,
        "meta_mean_motion_ddot": 0,
        "tle_line1": "1 39260U 13052A   25336.21386034  .00000143  00000+0  93899-4 0  9996",
        "tle_line2": "2 39260  98.4752 314.4078 0013777 227.7550 132.2457 14.15690888630695"
      },
      "geometry": {
        "type": "Point",
        "coordinates": [
          177.3689825688949,
          77.62453369267578
        ]
      }
    }
  ]
}